[
    {
        "Altitude(m)": 617719.7710761824,
        "Argument of Periapsis(deg)": 0.0,
        "Eccentricity": 0.0,
        "Inclination(deg)": 60.0,
        "Latitude(deg)": -41.10264046589151,
        "Longitude(deg)": -14.905282655808733,
        "Mean Anomaly(deg)": -130.9091,
        "RAAN(deg)": 235.0,
        "Satellite Name": "Test1 1048",
        "Satellite Number": 1048,
        "Semi-Major Axis(m)": 6980739.136638005,
        "Time(s)": 0
    },
    {
        "Altitude(m)": 617911.3067170127,
        "Argument of Periapsis(deg)": 0.00010418945913296404,
        "Eccentricity": 0.0,
        "Inclination(deg)": 60.0,
        "Latitude(deg)": -41.56583172708555,
        "Longitude(deg)": -14.400874951571186,
        "Mean Anomaly(deg)": -130.28899385453815,
        "RAAN(deg)": 234.99957995086027,
        "Satellite Name": "Test1 1048",
        "Satellite Number": 1048,
        "Semi-Major Axis(m)": 6980739.136638005,
        "Time(s)": 10
    }
]